{"type":"FeatureCollection","features":[{"type":"Feature","geometry":{"type":"Polygon","coordinates":[[[-90.12908935546875,29.964452850852],[-90.12771606445312,29.964452850852],[-90.12771606445312,29.96326311304829],[-90.12908935546875,29.96326311304829],[-90.12908935546875,29.964452850852]]]},"properties":{"FLD_ZONE":"AE","density":3274,"score":0.22}},{"type":"Feature","geometry":{"type":"Polygon","coordinates":[[[-90.12771606445312,29.964452850852],[-90.1263427734375,29.964452850852],[-90.1263427734375,29.96326311304829],[-90.12771606445312,29.96326311304829],[-90.12771606445312,29.964452850852]]]},"properties":{"FLD_ZONE":"AE","density":3274,"score":0.22}},{"type":"Feature","geometry":{"type":"Polygon","coordinates":[[[-90.1263427734375,29.96326311304829],[-90.12496948242188,29.96326311304829],[-90.12496948242188,29.962073361002247],[-90.1263427734375,29.962073361002247],[-90.1263427734375,29.96326311304829]]]},"properties":{"FLD_ZONE":"AE","density":3418,"score":0.23}},{"type":"Feature","geometry":{"type":"Polygon","coordinates":[[[-90.12496948242188,29.97397024051662],[-90.12359619140625,29.97397024051662],[-90.12359619140625,29.97278061666388],[-90.12496948242188,29.97278061666388],[-90.12496948242188,29.97397024051662]]]},"properties":{"FLD_ZONE":"AE","density":3274,"score":0.22}},{"type":"Feature","geometry":{"type":"Polygon","coordinates":[[[-90.12496948242188,29.97278061666388],[-90.12359619140625,29.97278061666388],[-90.12359619140625,29.971590978566088],[-90.12496948242188,29.971590978566088],[-90.12496948242188,29.97278061666388]]]},"properties":{"FLD_ZONE":"AE","density":3274,"score":0.22}},{"type":"Feature","geometry":{"type":"Polygon","coordinates":[[[-90.12496948242188,29.96326311304829],[-90.12359619140625,29.96326311304829],[-90.12359619140625,29.962073361002247],[-90.12496948242188,29.962073361002247],[-90.12496948242188,29.96326311304829]]]},"properties":{"FLD_ZONE":"AE","density":3418,"score":0.23}},{"type":"Feature","geometry":{"type":"Polygon","coordinates":[[[-90.12359619140625,29.97397024051662],[-90.12222290039062,29.97397024051662],[-90.12222290039062,29.97278061666388],[-90.12359619140625,29.97278061666388],[-90.12359619140625,29.97397024051662]]]},"properties":{"FLD_ZONE":"AE","density":3274,"score":0.22}},{"type":"Feature","geometry":{"type":"Polygon","coordinates":[[[-90.12359619140625,29.97278061666388],[-90.12222290039062,29.97278061666388],[-90.12222290039062,29.971590978566088],[-90.12359619140625,29.971590978566088],[-90.12359619140625,29.97278061666388]]]},"properties":{"FLD_ZONE":"AE","density":3274,"score":0.22}},{"type":"Feature","geometry":{"type":"Polygon","coordinates":[[[-90.12222290039062,29.97397024051662],[-90.120849609375,29.97397024051662],[-90.120849609375,29.97278061666388],[-90.12222290039062,29.97278061666388],[-90.12222290039062,29.97397024051662]]]},"properties":{"FLD_ZONE":"AE","density":3274,"score":0.22}},{"type":"Feature","geometry":{"type":"Polygon","coordinates":[[[-90.12222290039062,29.97278061666388],[-90.120849609375,29.97278061666388],[-90.120849609375,29.971590978566088],[-90.12222290039062,29.971590978566088],[-90.12222290039062,29.97278061666388]]]},"properties":{"FLD_ZONE":"AE","density":3274,"score":0.22}},{"type":"Feature","geometry":{"type":"Polygon","coordinates":[[[-90.120849609375,29.97397024051662],[-90.11947631835938,29.97397024051662],[-90.11947631835938,29.97278061666388],[-90.120849609375,29.97278061666388],[-90.120849609375,29.97397024051662]]]},"properties":{"FLD_ZONE":"AE","density":3274,"score":0.22}},{"type":"Feature","geometry":{"type":"Polygon","coordinates":[[[-90.120849609375,29.97278061666388],[-90.11947631835938,29.97278061666388],[-90.11947631835938,29.971590978566088],[-90.120849609375,29.971590978566088],[-90.120849609375,29.97278061666388]]]},"properties":{"FLD_ZONE":"AE","density":3274,"score":0.22}},{"type":"Feature","geometry":{"type":"Polygon","coordinates":[[[-90.11947631835938,29.97278061666388],[-90.11810302734375,29.97278061666388],[-90.11810302734375,29.971590978566088],[-90.11947631835938,29.971590978566088],[-90.11947631835938,29.97278061666388]]]},"properties":{"FLD_ZONE":"AE","density":3274,"score":0.22}},{"type":"Feature","geometry":{"type":"Polygon","coordinates":[[[-90.11810302734375,29.941845397474445],[-90.11672973632812,29.941845397474445],[-90.11672973632812,29.940655389125002],[-90.11810302734375,29.940655389125002],[-90.11810302734375,29.941845397474445]]]},"properties":{"FLD_ZONE":"AE","density":5270,"score":0.36}},{"type":"Feature","geometry":{"type":"Polygon","coordinates":[[[-90.11672973632812,29.941845397474445],[-90.1153564453125,29.941845397474445],[-90.1153564453125,29.940655389125002],[-90.11672973632812,29.940655389125002],[-90.11672973632812,29.941845397474445]]]},"properties":{"FLD_ZONE":"AE","density":3800,"score":0.26}},{"type":"Feature","geometry":{"type":"Polygon","coordinates":[[[-90.11672973632812,29.940655389125002],[-90.1153564453125,29.940655389125002],[-90.1153564453125,29.939465366539732],[-90.11672973632812,29.939465366539732],[-90.11672973632812,29.940655389125002]]]},"properties":{"FLD_ZONE":"AE","density":3800,"score":0.26}},{"type":"Feature","geometry":{"type":"Polygon","coordinates":[[[-90.1153564453125,29.943035391587728],[-90.11398315429688,29.943035391587728],[-90.11398315429688,29.941845397474445],[-90.1153564453125,29.941845397474445],[-90.1153564453125,29.943035391587728]]]},"properties":{"FLD_ZONE":"AE","density":3800,"score":0.26}},{"type":"Feature","geometry":{"type":"Polygon","coordinates":[[[-90.1153564453125,29.941845397474445],[-90.11398315429688,29.941845397474445],[-90.11398315429688,29.940655389125002],[-90.1153564453125,29.940655389125002],[-90.1153564453125,29.941845397474445]]]},"properties":{"FLD_ZONE":"AE","density":3800,"score":0.26}},{"type":"Feature","geometry":{"type":"Polygon","coordinates":[[[-90.1153564453125,29.940655389125002],[-90.11398315429688,29.940655389125002],[-90.11398315429688,29.939465366539732],[-90.1153564453125,29.939465366539732],[-90.1153564453125,29.940655389125002]]]},"properties":{"FLD_ZONE":"AE","density":3800,"score":0.26}},{"type":"Feature","geometry":{"type":"Polygon","coordinates":[[[-90.1153564453125,29.939465366539732],[-90.11398315429688,29.939465366539732],[-90.11398315429688,29.938275329718987],[-90.1153564453125,29.938275329718987],[-90.1153564453125,29.939465366539732]]]},"properties":{"FLD_ZONE":"AE","density":3800,"score":0.26}},{"type":"Feature","geometry":{"type":"Polygon","coordinates":[[[-90.11398315429688,29.941845397474445],[-90.11260986328125,29.941845397474445],[-90.11260986328125,29.940655389125002],[-90.11398315429688,29.940655389125002],[-90.11398315429688,29.941845397474445]]]},"properties":{"FLD_ZONE":"AE","density":3800,"score":0.26}},{"type":"Feature","geometry":{"type":"Polygon","coordinates":[[[-90.11398315429688,29.940655389125002],[-90.11260986328125,29.940655389125002],[-90.11260986328125,29.939465366539732],[-90.11398315429688,29.939465366539732],[-90.11398315429688,29.940655389125002]]]},"properties":{"FLD_ZONE":"AE","density":3800,"score":0.26}},{"type":"Feature","geometry":{"type":"Polygon","coordinates":[[[-90.11398315429688,29.939465366539732],[-90.11260986328125,29.939465366539732],[-90.11260986328125,29.938275329718987],[-90.11398315429688,29.938275329718987],[-90.11398315429688,29.939465366539732]]]},"properties":{"FLD_ZONE":"AE","density":3800,"score":0.26}},{"type":"Feature","geometry":{"type":"Polygon","coordinates":[[[-90.11260986328125,29.943035391587728],[-90.11123657226562,29.943035391587728],[-90.11123657226562,29.941845397474445],[-90.11260986328125,29.941845397474445],[-90.11260986328125,29.943035391587728]]]},"properties":{"FLD_ZONE":"AE","density":3800,"score":0.26}},{"type":"Feature","geometry":{"type":"Polygon","coordinates":[[[-90.11260986328125,29.941845397474445],[-90.11123657226562,29.941845397474445],[-90.11123657226562,29.940655389125002],[-90.11260986328125,29.940655389125002],[-90.11260986328125,29.941845397474445]]]},"properties":{"FLD_ZONE":"AE","density":3800,"score":0.26}},{"type":"Feature","geometry":{"type":"Polygon","coordinates":[[[-90.11260986328125,29.940655389125002],[-90.11123657226562,29.940655389125002],[-90.11123657226562,29.939465366539732],[-90.11260986328125,29.939465366539732],[-90.11260986328125,29.940655389125002]]]},"properties":{"FLD_ZONE":"AE","density":3800,"score":0.26}},{"type":"Feature","geometry":{"type":"Polygon","coordinates":[[[-90.11260986328125,29.939465366539732],[-90.11123657226562,29.939465366539732],[-90.11123657226562,29.938275329718987],[-90.11260986328125,29.938275329718987],[-90.11260986328125,29.939465366539732]]]},"properties":{"FLD_ZONE":"AE","density":3800,"score":0.26}},{"type":"Feature","geometry":{"type":"Polygon","coordinates":[[[-90.11260986328125,29.938275329718987],[-90.11123657226562,29.938275329718987],[-90.11123657226562,29.937085278663112],[-90.11260986328125,29.937085278663112],[-90.11260986328125,29.938275329718987]]]},"properties":{"FLD_ZONE":"AE","density":3800,"score":0.26}},{"type":"Feature","geometry":{"type":"Polygon","coordinates":[[[-90.11123657226562,29.941845397474445],[-90.10986328125,29.941845397474445],[-90.10986328125,29.940655389125002],[-90.11123657226562,29.940655389125002],[-90.11123657226562,29.941845397474445]]]},"properties":{"FLD_ZONE":"AE","density":3800,"score":0.26}},{"type":"Feature","geometry":{"type":"Polygon","coordinates":[[[-90.11123657226562,29.940655389125002],[-90.10986328125,29.940655389125002],[-90.10986328125,29.939465366539732],[-90.11123657226562,29.939465366539732],[-90.11123657226562,29.940655389125002]]]},"properties":{"FLD_ZONE":"AE","density":3800,"score":0.26}},{"type":"Feature","geometry":{"type":"Polygon","coordinates":[[[-90.11123657226562,29.939465366539732],[-90.10986328125,29.939465366539732],[-90.10986328125,29.938275329718987],[-90.11123657226562,29.938275329718987],[-90.11123657226562,29.939465366539732]]]},"properties":{"FLD_ZONE":"AE","density":3800,"score":0.26}},{"type":"Feature","geometry":{"type":"Polygon","coordinates":[[[-90.11123657226562,29.938275329718987],[-90.10986328125,29.938275329718987],[-90.10986328125,29.937085278663112],[-90.11123657226562,29.937085278663112],[-90.11123657226562,29.938275329718987]]]},"properties":{"FLD_ZONE":"AE","density":3134,"score":0.21}},{"type":"Feature","geometry":{"type":"Polygon","coordinates":[[[-90.10986328125,29.97397024051662],[-90.10848999023438,29.97397024051662],[-90.10848999023438,29.97278061666388],[-90.10986328125,29.97278061666388],[-90.10986328125,29.97397024051662]]]},"properties":{"FLD_ZONE":"AE","density":3686,"score":0.25}},{"type":"Feature","geometry":{"type":"Polygon","coordinates":[[[-90.10986328125,29.97278061666388],[-90.10848999023438,29.97278061666388],[-90.10848999023438,29.971590978566088],[-90.10986328125,29.971590978566088],[-90.10986328125,29.97278061666388]]]},"properties":{"FLD_ZONE":"AE","density":3686,"score":0.25}},{"type":"Feature","geometry":{"type":"Polygon","coordinates":[[[-90.10986328125,29.943035391587728],[-90.10848999023438,29.943035391587728],[-90.10848999023438,29.941845397474445],[-90.10986328125,29.941845397474445],[-90.10986328125,29.943035391587728]]]},"properties":{"FLD_ZONE":"AE","density":3623,"score":0.25}},{"type":"Feature","geometry":{"type":"Polygon","coordinates":[[[-90.10986328125,29.941845397474445],[-90.10848999023438,29.941845397474445],[-90.10848999023438,29.940655389125002],[-90.10986328125,29.940655389125002],[-90.10986328125,29.941845397474445]]]},"properties":{"FLD_ZONE":"AE","density":3623,"score":0.25}},{"type":"Feature","geometry":{"type":"Polygon","coordinates":[[[-90.10986328125,29.940655389125002],[-90.10848999023438,29.940655389125002],[-90.10848999023438,29.939465366539732],[-90.10986328125,29.939465366539732],[-90.10986328125,29.940655389125002]]]},"properties":{"FLD_ZONE":"AE","density":3134,"score":0.21}},{"type":"Feature","geometry":{"type":"Polygon","coordinates":[[[-90.10986328125,29.939465366539732],[-90.10848999023438,29.939465366539732],[-90.10848999023438,29.938275329718987],[-90.10986328125,29.938275329718987],[-90.10986328125,29.939465366539732]]]},"properties":{"FLD_ZONE":"AE","density":3134,"score":0.21}},{"type":"Feature","geometry":{"type":"Polygon","coordinates":[[[-90.10986328125,29.938275329718987],[-90.10848999023438,29.938275329718987],[-90.10848999023438,29.937085278663112],[-90.10986328125,29.937085278663112],[-90.10986328125,29.938275329718987]]]},"properties":{"FLD_ZONE":"AE","density":3134,"score":0.21}},{"type":"Feature","geometry":{"type":"Polygon","coordinates":[[[-90.10848999023438,29.97515985012392],[-90.10711669921875,29.97515985012392],[-90.10711669921875,29.97397024051662],[-90.10848999023438,29.97397024051662],[-90.10848999023438,29.97515985012392]]]},"properties":{"FLD_ZONE":"AE","density":3686,"score":0.25}},{"type":"Feature","geometry":{"type":"Polygon","coordinates":[[[-90.10848999023438,29.97397024051662],[-90.10711669921875,29.97397024051662],[-90.10711669921875,29.97278061666388],[-90.10848999023438,29.97278061666388],[-90.10848999023438,29.97397024051662]]]},"properties":{"FLD_ZONE":"AE","density":3686,"score":0.25}},{"type":"Feature","geometry":{"type":"Polygon","coordinates":[[[-90.10848999023438,29.97278061666388],[-90.10711669921875,29.97278061666388],[-90.10711669921875,29.971590978566088],[-90.10848999023438,29.971590978566088],[-90.10848999023438,29.97278061666388]]]},"properties":{"FLD_ZONE":"AE","density":3686,"score":0.25}},{"type":"Feature","geometry":{"type":"Polygon","coordinates":[[[-90.10848999023438,29.943035391587728],[-90.10711669921875,29.943035391587728],[-90.10711669921875,29.941845397474445],[-90.10848999023438,29.941845397474445],[-90.10848999023438,29.943035391587728]]]},"properties":{"FLD_ZONE":"AE","density":3623,"score":0.25}},{"type":"Feature","geometry":{"type":"Polygon","coordinates":[[[-90.10848999023438,29.941845397474445],[-90.10711669921875,29.941845397474445],[-90.10711669921875,29.940655389125002],[-90.10848999023438,29.940655389125002],[-90.10848999023438,29.941845397474445]]]},"properties":{"FLD_ZONE":"AE","density":3623,"score":0.25}},{"type":"Feature","geometry":{"type":"Polygon","coordinates":[[[-90.10848999023438,29.940655389125002],[-90.10711669921875,29.940655389125002],[-90.10711669921875,29.939465366539732],[-90.10848999023438,29.939465366539732],[-90.10848999023438,29.940655389125002]]]},"properties":{"FLD_ZONE":"AE","density":3134,"score":0.21}},{"type":"Feature","geometry":{"type":"Polygon","coordinates":[[[-90.10848999023438,29.939465366539732],[-90.10711669921875,29.939465366539732],[-90.10711669921875,29.938275329718987],[-90.10848999023438,29.938275329718987],[-90.10848999023438,29.939465366539732]]]},"properties":{"FLD_ZONE":"AE","density":3134,"score":0.21}},{"type":"Feature","geometry":{"type":"Polygon","coordinates":[[[-90.10848999023438,29.938275329718987],[-90.10711669921875,29.938275329718987],[-90.10711669921875,29.937085278663112],[-90.10848999023438,29.937085278663112],[-90.10848999023438,29.938275329718987]]]},"properties":{"FLD_ZONE":"AE","density":3134,"score":0.21}},{"type":"Feature","geometry":{"type":"Polygon","coordinates":[[[-90.10711669921875,30.017976305655733],[-90.10574340820312,30.017976305655733],[-90.10574340820312,30.016787209111058],[-90.10711669921875,30.016787209111058],[-90.10711669921875,30.017976305655733]]]},"properties":{"FLD_ZONE":"AE","density":3120,"score":0.21}},{"type":"Feature","geometry":{"type":"Polygon","coordinates":[[[-90.10711669921875,30.016787209111058],[-90.10574340820312,30.016787209111058],[-90.10574340820312,30.015598098308676],[-90.10711669921875,30.015598098308676],[-90.10711669921875,30.016787209111058]]]},"properties":{"FLD_ZONE":"AE","density":3120,"score":0.21}},{"type":"Feature","geometry":{"type":"Polygon","coordinates":[[[-90.10711669921875,30.015598098308676],[-90.10574340820312,30.015598098308676],[-90.10574340820312,30.014408973248916],[-90.10711669921875,30.014408973248916],[-90.10711669921875,30.015598098308676]]]},"properties":{"FLD_ZONE":"AE","density":3120,"score":0.21}},{"type":"Feature","geometry":{"type":"Polygon","coordinates":[[[-90.10711669921875,30.014408973248916],[-90.10574340820312,30.014408973248916],[-90.10574340820312,30.013219833932094],[-90.10711669921875,30.013219833932094],[-90.10711669921875,30.014408973248916]]]},"properties":{"FLD_ZONE":"AE","density":3120,"score":0.21}},{"type":"Feature","geometry":{"type":"Polygon","coordinates":[[[-90.10711669921875,30.012030680358606],[-90.10574340820312,30.012030680358606],[-90.10574340820312,30.010841512528764],[-90.10711669921875,30.010841512528764],[-90.10711669921875,30.012030680358606]]]},"properties":{"FLD_ZONE":"AE","density":3120,"score":0.21}},{"type":"Feature","geometry":{"type":"Polygon","coordinates":[[[-90.10711669921875,30.010841512528764],[-90.10574340820312,30.010841512528764],[-90.10574340820312,30.00965233044291],[-90.10711669921875,30.00965233044291],[-90.10711669921875,30.010841512528764]]]},"properties":{"FLD_ZONE":"AE","density":3120,"score":0.21}},{"type":"Feature","geometry":{"type":"Polygon","coordinates":[[[-90.10711669921875,30.00965233044291],[-90.10574340820312,30.00965233044291],[-90.10574340820312,30.00846313410139],[-90.10711669921875,30.00846313410139],[-90.10711669921875,30.00965233044291]]]},"properties":{"FLD_ZONE":"AE","density":3120,"score":0.21}},{"type":"Feature","geometry":{"type":"Polygon","coordinates":[[[-90.10711669921875,30.00846313410139],[-90.10574340820312,30.00846313410139],[-90.10574340820312,30.007273923504542],[-90.10711669921875,30.007273923504542],[-90.10711669921875,30.00846313410139]]]},"properties":{"FLD_ZONE":"AE","density":3120,"score":0.21}},{"type":"Feature","geometry":{"type":"Polygon","coordinates":[[[-90.10711669921875,30.007273923504542],[-90.10574340820312,30.007273923504542],[-90.10574340820312,30.006084698652703],[-90.10711669921875,30.006084698652703],[-90.10711669921875,30.007273923504542]]]},"properties":{"FLD_ZONE":"AE","density":3120,"score":0.21}},{"type":"Feature","geometry":{"type":"Polygon","coordinates":[[[-90.10711669921875,30.006084698652703],[-90.10574340820312,30.006084698652703],[-90.10574340820312,30.00489545954623],[-90.10711669921875,30.00489545954623],[-90.10711669921875,30.006084698652703]]]},"properties":{"FLD_ZONE":"AE","density":3120,"score":0.21}},{"type":"Feature","geometry":{"type":"Polygon","coordinates":[[[-90.10711669921875,29.97515985012392],[-90.10574340820312,29.97515985012392],[-90.10574340820312,29.97397024051662],[-90.10711669921875,29.97397024051662],[-90.10711669921875,29.97515985012392]]]},"properties":{"FLD_ZONE":"AE","density":3686,"score":0.25}},{"type":"Feature","geometry":{"type":"Polygon","coordinates":[[[-90.10711669921875,29.97397024051662],[-90.10574340820312,29.97397024051662],[-90.10574340820312,29.97278061666388],[-90.10711669921875,29.97278061666388],[-90.10711669921875,29.97397024051662]]]},"properties":{"FLD_ZONE":"AE","density":3686,"score":0.25}},{"type":"Feature","geometry":{"type":"Polygon","coordinates":[[[-90.10711669921875,29.97278061666388],[-90.10574340820312,29.97278061666388],[-90.10574340820312,29.971590978566088],[-90.10711669921875,29.971590978566088],[-90.10711669921875,29.97278061666388]]]},"properties":{"FLD_ZONE":"AE","density":3686,"score":0.25}},{"type":"Feature","geometry":{"type":"Polygon","coordinates":[[[-90.10711669921875,29.971590978566088],[-90.10574340820312,29.971590978566088],[-90.10574340820312,29.970401326223566],[-90.10711669921875,29.970401326223566],[-90.10711669921875,29.971590978566088]]]},"properties":{"FLD_ZONE":"AE","density":3686,"score":0.25}},{"type":"Feature","geometry":{"type":"Polygon","coordinates":[[[-90.10711669921875,29.943035391587728],[-90.10574340820312,29.943035391587728],[-90.10574340820312,29.941845397474445],[-90.10711669921875,29.941845397474445],[-90.10711669921875,29.943035391587728]]]},"properties":{"FLD_ZONE":"AE","density":3623,"score":0.25}},{"type":"Feature","geometry":{"type":"Polygon","coordinates":[[[-90.10711669921875,29.941845397474445],[-90.10574340820312,29.941845397474445],[-90.10574340820312,29.940655389125002],[-90.10711669921875,29.940655389125002],[-90.10711669921875,29.941845397474445]]]},"properties":{"FLD_ZONE":"AE","density":3623,"score":0.25}},{"type":"Feature","geometry":{"type":"Polygon","coordinates":[[[-90.10711669921875,29.940655389125002],[-90.10574340820312,29.940655389125002],[-90.10574340820312,29.939465366539732],[-90.10711669921875,29.939465366539732],[-90.10711669921875,29.940655389125002]]]},"properties":{"FLD_ZONE":"AE","density":3623,"score":0.25}},{"type":"Feature","geometry":{"type":"Polygon","coordinates":[[[-90.10711669921875,29.939465366539732],[-90.10574340820312,29.939465366539732],[-90.10574340820312,29.938275329718987],[-90.10711669921875,29.938275329718987],[-90.10711669921875,29.939465366539732]]]},"properties":{"FLD_ZONE":"AE","density":3134,"score":0.21}},{"type":"Feature","geometry":{"type":"Polygon","coordinates":[[[-90.10711669921875,29.938275329718987],[-90.10574340820312,29.938275329718987],[-90.10574340820312,29.937085278663112],[-90.10711669921875,29.937085278663112],[-90.10711669921875,29.938275329718987]]]},"properties":{"FLD_ZONE":"AE","density":3134,"score":0.21}},{"type":"Feature","geometry":{"type":"Polygon","coordinates":[[[-90.10574340820312,30.01916538794234],[-90.1043701171875,30.01916538794234],[-90.1043701171875,30.017976305655733],[-90.10574340820312,30.017976305655733],[-90.10574340820312,30.01916538794234]]]},"properties":{"FLD_ZONE":"AE","density":3120,"score":0.21}},{"type":"Feature","geometry":{"type":"Polygon","coordinates":[[[-90.10574340820312,30.017976305655733],[-90.1043701171875,30.017976305655733],[-90.1043701171875,30.016787209111058],[-90.10574340820312,30.016787209111058],[-90.10574340820312,30.017976305655733]]]},"properties":{"FLD_ZONE":"AE","density":3120,"score":0.21}},{"type":"Feature","geometry":{"type":"Polygon","coordinates":[[[-90.10574340820312,30.016787209111058],[-90.1043701171875,30.016787209111058],[-90.1043701171875,30.015598098308676],[-90.10574340820312,30.015598098308676],[-90.10574340820312,30.016787209111058]]]},"properties":{"FLD_ZONE":"AE","density":3120,"score":0.21}},{"type":"Feature","geometry":{"type":"Polygon","coordinates":[[[-90.10574340820312,30.015598098308676],[-90.1043701171875,30.015598098308676],[-90.1043701171875,30.014408973248916],[-90.10574340820312,30.014408973248916],[-90.10574340820312,30.015598098308676]]]},"properties":{"FLD_ZONE":"AE","density":3120,"score":0.21}},{"type":"Feature","geometry":{"type":"Polygon","coordinates":[[[-90.10574340820312,30.014408973248916],[-90.1043701171875,30.014408973248916],[-90.1043701171875,30.013219833932094],[-90.10574340820312,30.013219833932094],[-90.10574340820312,30.014408973248916]]]},"properties":{"FLD_ZONE":"AE","density":3120,"score":0.21}},{"type":"Feature","geometry":{"type":"Polygon","coordinates":[[[-90.10574340820312,30.013219833932094],[-90.1043701171875,30.013219833932094],[-90.1043701171875,30.012030680358606],[-90.10574340820312,30.012030680358606],[-90.10574340820312,30.013219833932094]]]},"properties":{"FLD_ZONE":"AE","density":3120,"score":0.21}},{"type":"Feature","geometry":{"type":"Polygon","coordinates":[[[-90.10574340820312,30.012030680358606],[-90.1043701171875,30.012030680358606],[-90.1043701171875,30.010841512528764],[-90.10574340820312,30.010841512528764],[-90.10574340820312,30.012030680358606]]]},"properties":{"FLD_ZONE":"AE","density":3120,"score":0.21}},{"type":"Feature","geometry":{"type":"Polygon","coordinates":[[[-90.10574340820312,30.010841512528764],[-90.1043701171875,30.010841512528764],[-90.1043701171875,30.00965233044291],[-90.10574340820312,30.00965233044291],[-90.10574340820312,30.010841512528764]]]},"properties":{"FLD_ZONE":"AE","density":3120,"score":0.21}},{"type":"Feature","geometry":{"type":"Polygon","coordinates":[[[-90.10574340820312,30.00965233044291],[-90.1043701171875,30.00965233044291],[-90.1043701171875,30.00846313410139],[-90.10574340820312,30.00846313410139],[-90.10574340820312,30.00965233044291]]]},"properties":{"FLD_ZONE":"AE","density":3120,"score":0.21}},{"type":"Feature","geometry":{"type":"Polygon","coordinates":[[[-90.10574340820312,30.00846313410139],[-90.1043701171875,30.00846313410139],[-90.1043701171875,30.007273923504542],[-90.10574340820312,30.007273923504542],[-90.10574340820312,30.00846313410139]]]},"properties":{"FLD_ZONE":"AE","density":3120,"score":0.21}},{"type":"Feature","geometry":{"type":"Polygon","coordinates":[[[-90.10574340820312,30.007273923504542],[-90.1043701171875,30.007273923504542],[-90.1043701171875,30.006084698652703],[-90.10574340820312,30.006084698652703],[-90.10574340820312,30.007273923504542]]]},"properties":{"FLD_ZONE":"AE","density":3120,"score":0.21}},{"type":"Feature","geometry":{"type":"Polygon","coordinates":[[[-90.10574340820312,29.97515985012392],[-90.1043701171875,29.97515985012392],[-90.1043701171875,29.97397024051662],[-90.10574340820312,29.97397024051662],[-90.10574340820312,29.97515985012392]]]},"properties":{"FLD_ZONE":"AE","density":3686,"score":0.25}},{"type":"Feature","geometry":{"type":"Polygon","coordinates":[[[-90.10574340820312,29.97397024051662],[-90.1043701171875,29.97397024051662],[-90.1043701171875,29.97278061666388],[-90.10574340820312,29.97278061666388],[-90.10574340820312,29.97397024051662]]]},"properties":{"FLD_ZONE":"AE","density":3686,"score":0.25}},{"type":"Feature","geometry":{"type":"Polygon","coordinates":[[[-90.10574340820312,29.97278061666388],[-90.1043701171875,29.97278061666388],[-90.1043701171875,29.971590978566088],[-90.10574340820312,29.971590978566088],[-90.10574340820312,29.97278061666388]]]},"properties":{"FLD_ZONE":"AE","density":3686,"score":0.25}},{"type":"Feature","geometry":{"type":"Polygon","coordinates":[[[-90.10574340820312,29.971590978566088],[-90.1043701171875,29.971590978566088],[-90.1043701171875,29.970401326223566],[-90.10574340820312,29.970401326223566],[-90.10574340820312,29.971590978566088]]]},"properties":{"FLD_ZONE":"AE","density":3686,"score":0.25}},{"type":"Feature","geometry":{"type":"Polygon","coordinates":[[[-90.10574340820312,29.943035391587728],[-90.1043701171875,29.943035391587728],[-90.1043701171875,29.941845397474445],[-90.10574340820312,29.941845397474445],[-90.10574340820312,29.943035391587728]]]},"properties":{"FLD_ZONE":"AE","density":3623,"score":0.25}},{"type":"Feature","geometry":{"type":"Polygon","coordinates":[[[-90.10574340820312,29.941845397474445],[-90.1043701171875,29.941845397474445],[-90.1043701171875,29.940655389125002],[-90.10574340820312,29.940655389125002],[-90.10574340820312,29.941845397474445]]]},"properties":{"FLD_ZONE":"AE","density":3623,"score":0.25}},{"type":"Feature","geometry":{"type":"Polygon","coordinates":[[[-90.10574340820312,29.940655389125002],[-90.1043701171875,29.940655389125002],[-90.1043701171875,29.939465366539732],[-90.10574340820312,29.939465366539732],[-90.10574340820312,29.940655389125002]]]},"properties":{"FLD_ZONE":"AE","density":3623,"score":0.25}},{"type":"Feature","geometry":{"type":"Polygon","coordinates":[[[-90.10574340820312,29.939465366539732],[-90.1043701171875,29.939465366539732],[-90.1043701171875,29.938275329718987],[-90.10574340820312,29.938275329718987],[-90.10574340820312,29.939465366539732]]]},"properties":{"FLD_ZONE":"AE","density":3134,"score":0.21}},{"type":"Feature","geometry":{"type":"Polygon","coordinates":[[[-90.10574340820312,29.938275329718987],[-90.1043701171875,29.938275329718987],[-90.1043701171875,29.937085278663112],[-90.10574340820312,29.937085278663112],[-90.10574340820312,29.938275329718987]]]},"properties":{"FLD_ZONE":"AE","density":3134,"score":0.21}},{"type":"Feature","geometry":{"type":"Polygon","coordinates":[[[-90.1043701171875,30.01916538794234],[-90.10299682617188,30.01916538794234],[-90.10299682617188,30.017976305655733],[-90.1043701171875,30.017976305655733],[-90.1043701171875,30.01916538794234]]]},"properties":{"FLD_ZONE":"AE","density":3120,"score":0.21}},{"type":"Feature","geometry":{"type":"Polygon","coordinates":[[[-90.1043701171875,30.017976305655733],[-90.10299682617188,30.017976305655733],[-90.10299682617188,30.016787209111058],[-90.1043701171875,30.016787209111058],[-90.1043701171875,30.017976305655733]]]},"properties":{"FLD_ZONE":"AE","density":3120,"score":0.21}},{"type":"Feature","geometry":{"type":"Polygon","coordinates":[[[-90.1043701171875,30.016787209111058],[-90.10299682617188,30.016787209111058],[-90.10299682617188,30.015598098308676],[-90.1043701171875,30.015598098308676],[-90.1043701171875,30.016787209111058]]]},"properties":{"FLD_ZONE":"AE","density":3120,"score":0.21}},{"type":"Feature","geometry":{"type":"Polygon","coordinates":[[[-90.1043701171875,30.015598098308676],[-90.10299682617188,30.015598098308676],[-90.10299682617188,30.014408973248916],[-90.1043701171875,30.014408973248916],[-90.1043701171875,30.015598098308676]]]},"properties":{"FLD_ZONE":"AE","density":3120,"score":0.21}},{"type":"Feature","geometry":{"type":"Polygon","coordinates":[[[-90.1043701171875,30.014408973248916],[-90.10299682617188,30.014408973248916],[-90.10299682617188,30.013219833932094],[-90.1043701171875,30.013219833932094],[-90.1043701171875,30.014408973248916]]]},"properties":{"FLD_ZONE":"AE","density":3120,"score":0.21}},{"type":"Feature","geometry":{"type":"Polygon","coordinates":[[[-90.1043701171875,30.013219833932094],[-90.10299682617188,30.013219833932094],[-90.10299682617188,30.012030680358606],[-90.1043701171875,30.012030680358606],[-90.1043701171875,30.013219833932094]]]},"properties":{"FLD_ZONE":"AE","density":3120,"score":0.21}},{"type":"Feature","geometry":{"type":"Polygon","coordinates":[[[-90.1043701171875,30.012030680358606],[-90.10299682617188,30.012030680358606],[-90.10299682617188,30.010841512528764],[-90.1043701171875,30.010841512528764],[-90.1043701171875,30.012030680358606]]]},"properties":{"FLD_ZONE":"AE","density":3120,"score":0.21}},{"type":"Feature","geometry":{"type":"Polygon","coordinates":[[[-90.1043701171875,30.010841512528764],[-90.10299682617188,30.010841512528764],[-90.10299682617188,30.00965233044291],[-90.1043701171875,30.00965233044291],[-90.1043701171875,30.010841512528764]]]},"properties":{"FLD_ZONE":"AE","density":3120,"score":0.21}},{"type":"Feature","geometry":{"type":"Polygon","coordinates":[[[-90.1043701171875,30.00965233044291],[-90.10299682617188,30.00965233044291],[-90.10299682617188,30.00846313410139],[-90.1043701171875,30.00846313410139],[-90.1043701171875,30.00965233044291]]]},"properties":{"FLD_ZONE":"AE","density":3120,"score":0.21}},{"type":"Feature","geometry":{"type":"Polygon","coordinates":[[[-90.1043701171875,30.00846313410139],[-90.10299682617188,30.00846313410139],[-90.10299682617188,30.007273923504542],[-90.1043701171875,30.007273923504542],[-90.1043701171875,30.00846313410139]]]},"properties":{"FLD_ZONE":"AE","density":3120,"score":0.21}},{"type":"Feature","geometry":{"type":"Polygon","coordinates":[[[-90.1043701171875,30.007273923504542],[-90.10299682617188,30.007273923504542],[-90.10299682617188,30.006084698652703],[-90.1043701171875,30.006084698652703],[-90.1043701171875,30.007273923504542]]]},"properties":{"FLD_ZONE":"AE","density":3120,"score":0.21}},{"type":"Feature","geometry":{"type":"Polygon","coordinates":[[[-90.1043701171875,30.006084698652703],[-90.10299682617188,30.006084698652703],[-90.10299682617188,30.00489545954623],[-90.1043701171875,30.00489545954623],[-90.1043701171875,30.006084698652703]]]},"properties":{"FLD_ZONE":"AE","density":3120,"score":0.21}},{"type":"Feature","geometry":{"type":"Polygon","coordinates":[[[-90.1043701171875,29.97515985012392],[-90.10299682617188,29.97515985012392],[-90.10299682617188,29.97397024051662],[-90.1043701171875,29.97397024051662],[-90.1043701171875,29.97515985012392]]]},"properties":{"FLD_ZONE":"AE","density":3686,"score":0.25}},{"type":"Feature","geometry":{"type":"Polygon","coordinates":[[[-90.1043701171875,29.97397024051662],[-90.10299682617188,29.97397024051662],[-90.10299682617188,29.97278061666388],[-90.1043701171875,29.97278061666388],[-90.1043701171875,29.97397024051662]]]},"properties":{"FLD_ZONE":"AE","density":3686,"score":0.25}},{"type":"Feature","geometry":{"type":"Polygon","coordinates":[[[-90.1043701171875,29.97278061666388],[-90.10299682617188,29.97278061666388],[-90.10299682617188,29.971590978566088],[-90.1043701171875,29.971590978566088],[-90.1043701171875,29.97278061666388]]]},"properties":{"FLD_ZONE":"AE","density":3686,"score":0.25}},{"type":"Feature","geometry":{"type":"Polygon","coordinates":[[[-90.1043701171875,29.971590978566088],[-90.10299682617188,29.971590978566088],[-90.10299682617188,29.970401326223566],[-90.1043701171875,29.970401326223566],[-90.1043701171875,29.971590978566088]]]},"properties":{"FLD_ZONE":"AE","density":4632,"score":0.32}},{"type":"Feature","geometry":{"type":"Polygon","coordinates":[[[-90.1043701171875,29.943035391587728],[-90.10299682617188,29.943035391587728],[-90.10299682617188,29.941845397474445],[-90.1043701171875,29.941845397474445],[-90.1043701171875,29.943035391587728]]]},"properties":{"FLD_ZONE":"AE","density":3623,"score":0.25}},{"type":"Feature","geometry":{"type":"Polygon","coordinates":[[[-90.1043701171875,29.941845397474445],[-90.10299682617188,29.941845397474445],[-90.10299682617188,29.940655389125002],[-90.1043701171875,29.940655389125002],[-90.1043701171875,29.941845397474445]]]},"properties":{"FLD_ZONE":"AE","density":3623,"score":0.25}},{"type":"Feature","geometry":{"type":"Polygon","coordinates":[[[-90.1043701171875,29.940655389125002],[-90.10299682617188,29.940655389125002],[-90.10299682617188,29.939465366539732],[-90.1043701171875,29.939465366539732],[-90.1043701171875,29.940655389125002]]]},"properties":{"FLD_ZONE":"AE","density":3134,"score":0.21}},{"type":"Feature","geometry":{"type":"Polygon","coordinates":[[[-90.1043701171875,29.939465366539732],[-90.10299682617188,29.939465366539732],[-90.10299682617188,29.938275329718987],[-90.1043701171875,29.938275329718987],[-90.1043701171875,29.939465366539732]]]},"properties":{"FLD_ZONE":"AE","density":3134,"score":0.21}},{"type":"Feature","geometry":{"type":"Polygon","coordinates":[[[-90.1043701171875,29.938275329718987],[-90.10299682617188,29.938275329718987],[-90.10299682617188,29.937085278663112],[-90.1043701171875,29.937085278663112],[-90.1043701171875,29.938275329718987]]]},"properties":{"FLD_ZONE":"AE","density":3134,"score":0.21}},{"type":"Feature","geometry":{"type":"Polygon","coordinates":[[[-90.1043701171875,29.937085278663112],[-90.10299682617188,29.937085278663112],[-90.10299682617188,29.935895213372437],[-90.1043701171875,29.935895213372437],[-90.1043701171875,29.937085278663112]]]},"properties":{"FLD_ZONE":"AE","density":3134,"score":0.21}},{"type":"Feature","geometry":{"type":"Polygon","coordinates":[[[-90.1043701171875,29.926374178635747],[-90.10299682617188,29.926374178635747],[-90.10299682617188,29.925183985247408],[-90.1043701171875,29.925183985247408],[-90.1043701171875,29.926374178635747]]]},"properties":{"FLD_ZONE":"AE","density":3869,"score":0.26}},{"type":"Feature","geometry":{"type":"Polygon","coordinates":[[[-90.10299682617188,30.01916538794234],[-90.10162353515625,30.01916538794234],[-90.10162353515625,30.017976305655733],[-90.10299682617188,30.017976305655733],[-90.10299682617188,30.01916538794234]]]},"properties":{"FLD_ZONE":"AE","density":3120,"score":0.21}},{"type":"Feature","geometry":{"type":"Polygon","coordinates":[[[-90.10299682617188,30.017976305655733],[-90.10162353515625,30.017976305655733],[-90.10162353515625,30.016787209111058],[-90.10299682617188,30.016787209111058],[-90.10299682617188,30.017976305655733]]]},"properties":{"FLD_ZONE":"AE","density":3120,"score":0.21}},{"type":"Feature","geometry":{"type":"Polygon","coordinates":[[[-90.10299682617188,30.016787209111058],[-90.10162353515625,30.016787209111058],[-90.10162353515625,30.015598098308676],[-90.10299682617188,30.015598098308676],[-90.10299682617188,30.016787209111058]]]},"properties":{"FLD_ZONE":"AE","density":3120,"score":0.21}},{"type":"Feature","geometry":{"type":"Polygon","coordinates":[[[-90.10299682617188,30.015598098308676],[-90.10162353515625,30.015598098308676],[-90.10162353515625,30.014408973248916],[-90.10299682617188,30.014408973248916],[-90.10299682617188,30.015598098308676]]]},"properties":{"FLD_ZONE":"AE","density":3120,"score":0.21}},{"type":"Feature","geometry":{"type":"Polygon","coordinates":[[[-90.10299682617188,30.014408973248916],[-90.10162353515625,30.014408973248916],[-90.10162353515625,30.013219833932094],[-90.10299682617188,30.013219833932094],[-90.10299682617188,30.014408973248916]]]},"properties":{"FLD_ZONE":"AE","density":3120,"score":0.21}},{"type":"Feature","geometry":{"type":"Polygon","coordinates":[[[-90.10299682617188,30.013219833932094],[-90.10162353515625,30.013219833932094],[-90.10162353515625,30.012030680358606],[-90.10299682617188,30.012030680358606],[-90.10299682617188,30.013219833932094]]]},"properties":{"FLD_ZONE":"AE","density":3120,"score":0.21}},{"type":"Feature","geometry":{"type":"Polygon","coordinates":[[[-90.10299682617188,30.012030680358606],[-90.10162353515625,30.012030680358606],[-90.10162353515625,30.010841512528764],[-90.10299682617188,30.010841512528764],[-90.10299682617188,30.012030680358606]]]},"properties":{"FLD_ZONE":"AE","density":3120,"score":0.21}},{"type":"Feature","geometry":{"type":"Polygon","coordinates":[[[-90.10299682617188,30.010841512528764],[-90.10162353515625,30.010841512528764],[-90.10162353515625,30.00965233044291],[-90.10299682617188,30.00965233044291],[-90.10299682617188,30.010841512528764]]]},"properties":{"FLD_ZONE":"AE","density":3120,"score":0.21}},{"type":"Feature","geometry":{"type":"Polygon","coordinates":[[[-90.10299682617188,30.00965233044291],[-90.10162353515625,30.00965233044291],[-90.10162353515625,30.00846313410139],[-90.10299682617188,30.00846313410139],[-90.10299682617188,30.00965233044291]]]},"properties":{"FLD_ZONE":"AE","density":3120,"score":0.21}},{"type":"Feature","geometry":{"type":"Polygon","coordinates":[[[-90.10299682617188,30.00846313410139],[-90.10162353515625,30.00846313410139],[-90.10162353515625,30.007273923504542],[-90.10299682617188,30.007273923504542],[-90.10299682617188,30.00846313410139]]]},"properties":{"FLD_ZONE":"AE","density":3120,"score":0.21}},{"type":"Feature","geometry":{"type":"Polygon","coordinates":[[[-90.10299682617188,30.007273923504542],[-90.10162353515625,30.007273923504542],[-90.10162353515625,30.006084698652703],[-90.10299682617188,30.006084698652703],[-90.10299682617188,30.007273923504542]]]},"properties":{"FLD_ZONE":"AE","density":3120,"score":0.21}},{"type":"Feature","geometry":{"type":"Polygon","coordinates":[[[-90.10299682617188,30.006084698652703],[-90.10162353515625,30.006084698652703],[-90.10162353515625,30.00489545954623],[-90.10299682617188,30.00489545954623],[-90.10299682617188,30.006084698652703]]]},"properties":{"FLD_ZONE":"AE","density":3120,"score":0.21}},{"type":"Feature","geometry":{"type":"Polygon","coordinates":[[[-90.10299682617188,29.97397024051662],[-90.10162353515625,29.97397024051662],[-90.10162353515625,29.97278061666388],[-90.10299682617188,29.97278061666388],[-90.10299682617188,29.97397024051662]]]},"properties":{"FLD_ZONE":"AE","density":3686,"score":0.25}},{"type":"Feature","geometry":{"type":"Polygon","coordinates":[[[-90.10299682617188,29.97278061666388],[-90.10162353515625,29.97278061666388],[-90.10162353515625,29.971590978566088],[-90.10299682617188,29.971590978566088],[-90.10299682617188,29.97278061666388]]]},"properties":{"FLD_ZONE":"AE","density":4632,"score":0.32}},{"type":"Feature","geometry":{"type":"Polygon","coordinates":[[[-90.10299682617188,29.971590978566088],[-90.10162353515625,29.971590978566088],[-90.10162353515625,29.970401326223566],[-90.10299682617188,29.970401326223566],[-90.10299682617188,29.971590978566088]]]},"properties":{"FLD_ZONE":"AE","density":4632,"score":0.32}},{"type":"Feature","geometry":{"type":"Polygon","coordinates":[[[-90.10299682617188,29.952554831950973],[-90.10162353515625,29.952554831950973],[-90.10162353515625,29.951364951739343],[-90.10299682617188,29.951364951739343],[-90.10299682617188,29.952554831950973]]]},"properties":{"FLD_ZONE":"AE","density":4446,"score":0.3}},{"type":"Feature","geometry":{"type":"Polygon","coordinates":[[[-90.10299682617188,29.951364951739343],[-90.10162353515625,29.951364951739343],[-90.10162353515625,29.950175057288806],[-90.10299682617188,29.950175057288806],[-90.10299682617188,29.951364951739343]]]},"properties":{"FLD_ZONE":"AE","density":4446,"score":0.3}},{"type":"Feature","geometry":{"type":"Polygon","coordinates":[[[-90.10299682617188,29.950175057288806],[-90.10162353515625,29.950175057288806],[-90.10162353515625,29.9489851485997],[-90.10299682617188,29.9489851485997],[-90.10299682617188,29.950175057288806]]]},"properties":{"FLD_ZONE":"AE","density":4771,"score":0.32}},{"type":"Feature","geometry":{"type":"Polygon","coordinates":[[[-90.10299682617188,29.9489851485997],[-90.10162353515625,29.9489851485997],[-90.10162353515625,29.947795225672394],[-90.10299682617188,29.947795225672394],[-90.10299682617188,29.9489851485997]]]},"properties":{"FLD_ZONE":"AE","density":4771,"score":0.32}},{"type":"Feature","geometry":{"type":"Polygon","coordinates":[[[-90.10299682617188,29.947795225672394],[-90.10162353515625,29.947795225672394],[-90.10162353515625,29.946605288507186],[-90.10299682617188,29.946605288507186],[-90.10299682617188,29.947795225672394]]]},"properties":{"FLD_ZONE":"AE","density":4771,"score":0.32}},{"type":"Feature","geometry":{"type":"Polygon","coordinates":[[[-90.10299682617188,29.946605288507186],[-90.10162353515625,29.946605288507186],[-90.10162353515625,29.945415337104436],[-90.10299682617188,29.945415337104436],[-90.10299682617188,29.946605288507186]]]},"properties":{"FLD_ZONE":"AE","density":4771,"score":0.32}},{"type":"Feature","geometry":{"type":"Polygon","coordinates":[[[-90.10299682617188,29.945415337104436],[-90.10162353515625,29.945415337104436],[-90.10162353515625,29.9442253714645],[-90.10299682617188,29.9442253714645],[-90.10299682617188,29.945415337104436]]]},"properties":{"FLD_ZONE":"AE","density":4771,"score":0.32}},{"type":"Feature","geometry":{"type":"Polygon","coordinates":[[[-90.10299682617188,29.9442253714645],[-90.10162353515625,29.9442253714645],[-90.10162353515625,29.943035391587728],[-90.10299682617188,29.943035391587728],[-90.10299682617188,29.9442253714645]]]},"properties":{"FLD_ZONE":"AE","density":4771,"score":0.32}},{"type":"Feature","geometry":{"type":"Polygon","coordinates":[[[-90.10299682617188,29.943035391587728],[-90.10162353515625,29.943035391587728],[-90.10162353515625,29.941845397474445],[-90.10299682617188,29.941845397474445],[-90.10299682617188,29.943035391587728]]]},"properties":{"FLD_ZONE":"AE","density":4771,"score":0.32}},{"type":"Feature","geometry":{"type":"Polygon","coordinates":[[[-90.10162353515625,30.01916538794234],[-90.10025024414062,30.01916538794234],[-90.10025024414062,30.017976305655733],[-90.10162353515625,30.017976305655733],[-90.10162353515625,30.01916538794234]]]},"properties":{"FLD_ZONE":"AE","density":3120,"score":0.21}},{"type":"Feature","geometry":{"type":"Polygon","coordinates":[[[-90.10162353515625,30.017976305655733],[-90.10025024414062,30.017976305655733],[-90.10025024414062,30.016787209111058],[-90.10162353515625,30.016787209111058],[-90.10162353515625,30.017976305655733]]]},"properties":{"FLD_ZONE":"AE","density":3120,"score":0.21}},{"type":"Feature","geometry":{"type":"Polygon","coordinates":[[[-90.10162353515625,30.016787209111058],[-90.10025024414062,30.016787209111058],[-90.10025024414062,30.015598098308676],[-90.10162353515625,30.015598098308676],[-90.10162353515625,30.016787209111058]]]},"properties":{"FLD_ZONE":"AE","density":3120,"score":0.21}},{"type":"Feature","geometry":{"type":"Polygon","coordinates":[[[-90.10162353515625,30.015598098308676],[-90.10025024414062,30.015598098308676],[-90.10025024414062,30.014408973248916],[-90.10162353515625,30.014408973248916],[-90.10162353515625,30.015598098308676]]]},"properties":{"FLD_ZONE":"AE","density":3120,"score":0.21}},{"type":"Feature","geometry":{"type":"Polygon","coordinates":[[[-90.10162353515625,30.014408973248916],[-90.10025024414062,30.014408973248916],[-90.10025024414062,30.013219833932094],[-90.10162353515625,30.013219833932094],[-90.10162353515625,30.014408973248916]]]},"properties":{"FLD_ZONE":"AE","density":3120,"score":0.21}},{"type":"Feature","geometry":{"type":"Polygon","coordinates":[[[-90.10162353515625,30.013219833932094],[-90.10025024414062,30.013219833932094],[-90.10025024414062,30.012030680358606],[-90.10162353515625,30.012030680358606],[-90.10162353515625,30.013219833932094]]]},"properties":{"FLD_ZONE":"AE","density":3120,"score":0.21}},{"type":"Feature","geometry":{"type":"Polygon","coordinates":[[[-90.10162353515625,30.012030680358606],[-90.10025024414062,30.012030680358606],[-90.10025024414062,30.010841512528764],[-90.10162353515625,30.010841512528764],[-90.10162353515625,30.012030680358606]]]},"properties":{"FLD_ZONE":"AE","density":3120,"score":0.21}},{"type":"Feature","geometry":{"type":"Polygon","coordinates":[[[-90.10162353515625,30.010841512528764],[-90.10025024414062,30.010841512528764],[-90.10025024414062,30.00965233044291],[-90.10162353515625,30.00965233044291],[-90.10162353515625,30.010841512528764]]]},"properties":{"FLD_ZONE":"AE","density":3120,"score":0.21}},{"type":"Feature","geometry":{"type":"Polygon","coordinates":[[[-90.10162353515625,30.00965233044291],[-90.10025024414062,30.00965233044291],[-90.10025024414062,30.00846313410139],[-90.10162353515625,30.00846313410139],[-90.10162353515625,30.00965233044291]]]},"properties":{"FLD_ZONE":"AE","density":3120,"score":0.21}},{"type":"Feature","geometry":{"type":"Polygon","coordinates":[[[-90.10162353515625,29.97515985012392],[-90.10025024414062,29.97515985012392],[-90.10025024414062,29.97397024051662],[-90.10162353515625,29.97397024051662],[-90.10162353515625,29.97515985012392]]]},"properties":{"FLD_ZONE":"AE","density":3686,"score":0.25}},{"type":"Feature","geometry":{"type":"Polygon","coordinates":[[[-90.10162353515625,29.97278061666388],[-90.10025024414062,29.97278061666388],[-90.10025024414062,29.971590978566088],[-90.10162353515625,29.971590978566088],[-90.10162353515625,29.97278061666388]]]},"properties":{"FLD_ZONE":"AE","density":4632,"score":0.32}},{"type":"Feature","geometry":{"type":"Polygon","coordinates":[[[-90.10162353515625,29.971590978566088],[-90.10025024414062,29.971590978566088],[-90.10025024414062,29.970401326223566],[-90.10162353515625,29.970401326223566],[-90.10162353515625,29.971590978566088]]]},"properties":{"FLD_ZONE":"AE","density":4632,"score":0.32}},{"type":"Feature","geometry":{"type":"Polygon","coordinates":[[[-90.10162353515625,29.970401326223566],[-90.10025024414062,29.970401326223566],[-90.10025024414062,29.969211659636663],[-90.10162353515625,29.969211659636663],[-90.10162353515625,29.970401326223566]]]},"properties":{"FLD_ZONE":"AE","density":4632,"score":0.32}},{"type":"Feature","geometry":{"type":"Polygon","coordinates":[[[-90.10162353515625,29.969211659636663],[-90.10025024414062,29.969211659636663],[-90.10025024414062,29.96802197880571],[-90.10162353515625,29.96802197880571],[-90.10162353515625,29.969211659636663]]]},"properties":{"FLD_ZONE":"AE","density":4632,"score":0.32}},{"type":"Feature","geometry":{"type":"Polygon","coordinates":[[[-90.10162353515625,29.951364951739343],[-90.10025024414062,29.951364951739343],[-90.10025024414062,29.950175057288806],[-90.10162353515625,29.950175057288806],[-90.10162353515625,29.951364951739343]]]},"properties":{"FLD_ZONE":"AE","density":4446,"score":0.3}},{"type":"Feature","geometry":{"type":"Polygon","coordinates":[[[-90.10162353515625,29.950175057288806],[-90.10025024414062,29.950175057288806],[-90.10025024414062,29.9489851485997],[-90.10162353515625,29.9489851485997],[-90.10162353515625,29.950175057288806]]]},"properties":{"FLD_ZONE":"AE","density":4771,"score":0.32}},{"type":"Feature","geometry":{"type":"Polygon","coordinates":[[[-90.10162353515625,29.9489851485997],[-90.10025024414062,29.9489851485997],[-90.10025024414062,29.947795225672394],[-90.10162353515625,29.947795225672394],[-90.10162353515625,29.9489851485997]]]},"properties":{"FLD_ZONE":"AE","density":4771,"score":0.32}},{"type":"Feature","geometry":{"type":"Polygon","coordinates":[[[-90.10162353515625,29.947795225672394],[-90.10025024414062,29.947795225672394],[-90.10025024414062,29.946605288507186],[-90.10162353515625,29.946605288507186],[-90.10162353515625,29.947795225672394]]]},"properties":{"FLD_ZONE":"AE","density":4771,"score":0.32}},{"type":"Feature","geometry":{"type":"Polygon","coordinates":[[[-90.10162353515625,29.946605288507186],[-90.10025024414062,29.946605288507186],[-90.10025024414062,29.945415337104436],[-90.10162353515625,29.945415337104436],[-90.10162353515625,29.946605288507186]]]},"properties":{"FLD_ZONE":"AE","density":4771,"score":0.32}},{"type":"Feature","geometry":{"type":"Polygon","coordinates":[[[-90.10162353515625,29.945415337104436],[-90.10025024414062,29.945415337104436],[-90.10025024414062,29.9442253714645],[-90.10162353515625,29.9442253714645],[-90.10162353515625,29.945415337104436]]]},"properties":{"FLD_ZONE":"AE","density":4771,"score":0.32}},{"type":"Feature","geometry":{"type":"Polygon","coordinates":[[[-90.10162353515625,29.9442253714645],[-90.10025024414062,29.9442253714645],[-90.10025024414062,29.943035391587728],[-90.10162353515625,29.943035391587728],[-90.10162353515625,29.9442253714645]]]},"properties":{"FLD_ZONE":"AE","density":4771,"score":0.32}},{"type":"Feature","geometry":{"type":"Polygon","coordinates":[[[-90.10162353515625,29.943035391587728],[-90.10025024414062,29.943035391587728],[-90.10025024414062,29.941845397474445],[-90.10162353515625,29.941845397474445],[-90.10162353515625,29.943035391587728]]]},"properties":{"FLD_ZONE":"AE","density":4771,"score":0.32}},{"type":"Feature","geometry":{"type":"Polygon","coordinates":[[[-90.10025024414062,30.017976305655733],[-90.098876953125,30.017976305655733],[-90.098876953125,30.016787209111058],[-90.10025024414062,30.016787209111058],[-90.10025024414062,30.017976305655733]]]},"properties":{"FLD_ZONE":"AE","density":3120,"score":0.21}},{"type":"Feature","geometry":{"type":"Polygon","coordinates":[[[-90.10025024414062,30.016787209111058],[-90.098876953125,30.016787209111058],[-90.098876953125,30.015598098308676],[-90.10025024414062,30.015598098308676],[-90.10025024414062,30.016787209111058]]]},"properties":{"FLD_ZONE":"AE","density":3120,"score":0.21}},{"type":"Feature","geometry":{"type":"Polygon","coordinates":[[[-90.10025024414062,30.015598098308676],[-90.098876953125,30.015598098308676],[-90.098876953125,30.014408973248916],[-90.10025024414062,30.014408973248916],[-90.10025024414062,30.015598098308676]]]},"properties":{"FLD_ZONE":"AE","density":3120,"score":0.21}},{"type":"Feature","geometry":{"type":"Polygon","coordinates":[[[-90.10025024414062,30.014408973248916],[-90.098876953125,30.014408973248916],[-90.098876953125,30.013219833932094],[-90.10025024414062,30.013219833932094],[-90.10025024414062,30.014408973248916]]]},"properties":{"FLD_ZONE":"AE","density":3120,"score":0.21}},{"type":"Feature","geometry":{"type":"Polygon","coordinates":[[[-90.10025024414062,30.013219833932094],[-90.098876953125,30.013219833932094],[-90.098876953125,30.012030680358606],[-90.10025024414062,30.012030680358606],[-90.10025024414062,30.013219833932094]]]},"properties":{"FLD_ZONE":"AE","density":3120,"score":0.21}},{"type":"Feature","geometry":{"type":"Polygon","coordinates":[[[-90.10025024414062,29.97278061666388],[-90.098876953125,29.97278061666388],[-90.098876953125,29.971590978566088],[-90.10025024414062,29.971590978566088],[-90.10025024414062,29.97278061666388]]]},"properties":{"FLD_ZONE":"AE","density":4632,"score":0.32}},{"type":"Feature","geometry":{"type":"Polygon","coordinates":[[[-90.10025024414062,29.971590978566088],[-90.098876953125,29.971590978566088],[-90.098876953125,29.970401326223566],[-90.10025024414062,29.970401326223566],[-90.10025024414062,29.971590978566088]]]},"properties":{"FLD_ZONE":"AE","density":4632,"score":0.32}},{"type":"Feature","geometry":{"type":"Polygon","coordinates":[[[-90.10025024414062,29.970401326223566],[-90.098876953125,29.970401326223566],[-90.098876953125,29.969211659636663],[-90.10025024414062,29.969211659636663],[-90.10025024414062,29.970401326223566]]]},"properties":{"FLD_ZONE":"AE","density":4632,"score":0.32}},{"type":"Feature","geometry":{"type":"Polygon","coordinates":[[[-90.10025024414062,29.969211659636663],[-90.098876953125,29.969211659636663],[-90.098876953125,29.96802197880571],[-90.10025024414062,29.96802197880571],[-90.10025024414062,29.969211659636663]]]},"properties":{"FLD_ZONE":"AE","density":4632,"score":0.32}},{"type":"Feature","geometry":{"type":"Polygon","coordinates":[[[-90.10025024414062,29.96802197880571],[-90.098876953125,29.96802197880571],[-90.098876953125,29.966832283731055],[-90.10025024414062,29.966832283731055],[-90.10025024414062,29.96802197880571]]]},"properties":{"FLD_ZONE":"AE","density":4632,"score":0.32}},{"type":"Feature","geometry":{"type":"Polygon","coordinates":[[[-90.10025024414062,29.9489851485997],[-90.098876953125,29.9489851485997],[-90.098876953125,29.947795225672394],[-90.10025024414062,29.947795225672394],[-90.10025024414062,29.9489851485997]]]},"properties":{"FLD_ZONE":"AE","density":4771,"score":0.32}},{"type":"Feature","geometry":{"type":"Polygon","coordinates":[[[-90.10025024414062,29.947795225672394],[-90.098876953125,29.947795225672394],[-90.098876953125,29.946605288507186],[-90.10025024414062,29.946605288507186],[-90.10025024414062,29.947795225672394]]]},"properties":{"FLD_ZONE":"AE","density":4771,"score":0.32}},{"type":"Feature","geometry":{"type":"Polygon","coordinates":[[[-90.10025024414062,29.946605288507186],[-90.098876953125,29.946605288507186],[-90.098876953125,29.945415337104436],[-90.10025024414062,29.945415337104436],[-90.10025024414062,29.946605288507186]]]},"properties":{"FLD_ZONE":"AE","density":4771,"score":0.32}},{"type":"Feature","geometry":{"type":"Polygon","coordinates":[[[-90.10025024414062,29.945415337104436],[-90.098876953125,29.945415337104436],[-90.098876953125,29.9442253714645],[-90.10025024414062,29.9442253714645],[-90.10025024414062,29.945415337104436]]]},"properties":{"FLD_ZONE":"AE","density":4771,"score":0.32}},{"type":"Feature","geometry":{"type":"Polygon","coordinates":[[[-90.10025024414062,29.9442253714645],[-90.098876953125,29.9442253714645],[-90.098876953125,29.943035391587728],[-90.10025024414062,29.943035391587728],[-90.10025024414062,29.9442253714645]]]},"properties":{"FLD_ZONE":"AE","density":4771,"score":0.32}},{"type":"Feature","geometry":{"type":"Polygon","coordinates":[[[-90.10025024414062,29.943035391587728],[-90.098876953125,29.943035391587728],[-90.098876953125,29.941845397474445],[-90.10025024414062,29.941845397474445],[-90.10025024414062,29.943035391587728]]]},"properties":{"FLD_ZONE":"AE","density":4771,"score":0.32}},{"type":"Feature","geometry":{"type":"Polygon","coordinates":[[[-90.098876953125,29.971590978566088],[-90.09750366210938,29.971590978566088],[-90.09750366210938,29.970401326223566],[-90.098876953125,29.970401326223566],[-90.098876953125,29.971590978566088]]]},"properties":{"FLD_ZONE":"AE","density":4632,"score":0.32}},{"type":"Feature","geometry":{"type":"Polygon","coordinates":[[[-90.098876953125,29.970401326223566],[-90.09750366210938,29.970401326223566],[-90.09750366210938,29.969211659636663],[-90.098876953125,29.969211659636663],[-90.098876953125,29.970401326223566]]]},"properties":{"FLD_ZONE":"AE","density":4632,"score":0.32}},{"type":"Feature","geometry":{"type":"Polygon","coordinates":[[[-90.098876953125,29.969211659636663],[-90.09750366210938,29.969211659636663],[-90.09750366210938,29.96802197880571],[-90.098876953125,29.96802197880571],[-90.098876953125,29.969211659636663]]]},"properties":{"FLD_ZONE":"AE","density":4632,"score":0.32}},{"type":"Feature","geometry":{"type":"Polygon","coordinates":[[[-90.098876953125,29.96802197880571],[-90.09750366210938,29.96802197880571],[-90.09750366210938,29.966832283731055],[-90.098876953125,29.966832283731055],[-90.098876953125,29.96802197880571]]]},"properties":{"FLD_ZONE":"AE","density":4632,"score":0.32}},{"type":"Feature","geometry":{"type":"Polygon","coordinates":[[[-90.098876953125,29.966832283731055],[-90.09750366210938,29.966832283731055],[-90.09750366210938,29.965642574413035],[-90.098876953125,29.965642574413035],[-90.098876953125,29.966832283731055]]]},"properties":{"FLD_ZONE":"AE","density":4632,"score":0.32}},{"type":"Feature","geometry":{"type":"Polygon","coordinates":[[[-90.098876953125,29.945415337104436],[-90.09750366210938,29.945415337104436],[-90.09750366210938,29.9442253714645],[-90.098876953125,29.9442253714645],[-90.098876953125,29.945415337104436]]]},"properties":{"FLD_ZONE":"AE","density":4771,"score":0.32}},{"type":"Feature","geometry":{"type":"Polygon","coordinates":[[[-90.098876953125,29.9442253714645],[-90.09750366210938,29.9442253714645],[-90.09750366210938,29.943035391587728],[-90.098876953125,29.943035391587728],[-90.098876953125,29.9442253714645]]]},"properties":{"FLD_ZONE":"AE","density":4771,"score":0.32}},{"type":"Feature","geometry":{"type":"Polygon","coordinates":[[[-90.098876953125,29.943035391587728],[-90.09750366210938,29.943035391587728],[-90.09750366210938,29.941845397474445],[-90.098876953125,29.941845397474445],[-90.098876953125,29.943035391587728]]]},"properties":{"FLD_ZONE":"AE","density":4771,"score":0.32}},{"type":"Feature","geometry":{"type":"Polygon","coordinates":[[[-90.09750366210938,29.943035391587728],[-90.09613037109375,29.943035391587728],[-90.09613037109375,29.941845397474445],[-90.09750366210938,29.941845397474445],[-90.09750366210938,29.943035391587728]]]},"properties":{"FLD_ZONE":"AE","density":4771,"score":0.32}},{"type":"Feature","geometry":{"type":"Polygon","coordinates":[[[-90.09613037109375,29.960883594714204],[-90.09475708007812,29.960883594714204],[-90.09475708007812,29.9596938141845],[-90.09613037109375,29.9596938141845],[-90.09613037109375,29.960883594714204]]]},"properties":{"FLD_ZONE":"AE","density":8814,"score":0.6}},{"type":"Feature","geometry":{"type":"Polygon","coordinates":[[[-90.09475708007812,29.9489851485997],[-90.0933837890625,29.9489851485997],[-90.0933837890625,29.947795225672394],[-90.09475708007812,29.947795225672394],[-90.09475708007812,29.9489851485997]]]},"properties":{"FLD_ZONE":"AE","density":3486,"score":0.24}},{"type":"Feature","geometry":{"type":"Polygon","coordinates":[[[-90.09475708007812,29.943035391587728],[-90.0933837890625,29.943035391587728],[-90.0933837890625,29.941845397474445],[-90.09475708007812,29.941845397474445],[-90.09475708007812,29.943035391587728]]]},"properties":{"FLD_ZONE":"AE","density":4769,"score":0.32}},{"type":"Feature","geometry":{"type":"Polygon","coordinates":[[[-90.09475708007812,29.926374178635747],[-90.0933837890625,29.926374178635747],[-90.0933837890625,29.925183985247408],[-90.09475708007812,29.925183985247408],[-90.09475708007812,29.926374178635747]]]},"properties":{"FLD_ZONE":"AE","density":3344,"score":0.23}},{"type":"Feature","geometry":{"type":"Polygon","coordinates":[[[-90.0933837890625,29.9489851485997],[-90.09201049804688,29.9489851485997],[-90.09201049804688,29.947795225672394],[-90.0933837890625,29.947795225672394],[-90.0933837890625,29.9489851485997]]]},"properties":{"FLD_ZONE":"AE","density":3486,"score":0.24}},{"type":"Feature","geometry":{"type":"Polygon","coordinates":[[[-90.0933837890625,29.947795225672394],[-90.09201049804688,29.947795225672394],[-90.09201049804688,29.946605288507186],[-90.0933837890625,29.946605288507186],[-90.0933837890625,29.947795225672394]]]},"properties":{"FLD_ZONE":"AE","density":3486,"score":0.24}},{"type":"Feature","geometry":{"type":"Polygon","coordinates":[[[-90.0933837890625,29.943035391587728],[-90.09201049804688,29.943035391587728],[-90.09201049804688,29.941845397474445],[-90.0933837890625,29.941845397474445],[-90.0933837890625,29.943035391587728]]]},"properties":{"FLD_ZONE":"AE","density":4769,"score":0.32}},{"type":"Feature","geometry":{"type":"Polygon","coordinates":[[[-90.09201049804688,29.947795225672394],[-90.09063720703125,29.947795225672394],[-90.09063720703125,29.946605288507186],[-90.09201049804688,29.946605288507186],[-90.09201049804688,29.947795225672394]]]},"properties":{"FLD_ZONE":"AE","density":3486,"score":0.24}},{"type":"Feature","geometry":{"type":"Polygon","coordinates":[[[-90.09201049804688,29.946605288507186],[-90.09063720703125,29.946605288507186],[-90.09063720703125,29.945415337104436],[-90.09201049804688,29.945415337104436],[-90.09201049804688,29.946605288507186]]]},"properties":{"FLD_ZONE":"AE","density":3486,"score":0.24}},{"type":"Feature","geometry":{"type":"Polygon","coordinates":[[[-90.09201049804688,29.945415337104436],[-90.09063720703125,29.945415337104436],[-90.09063720703125,29.9442253714645],[-90.09201049804688,29.9442253714645],[-90.09201049804688,29.945415337104436]]]},"properties":{"FLD_ZONE":"AE","density":3486,"score":0.24}},{"type":"Feature","geometry":{"type":"Polygon","coordinates":[[[-90.09063720703125,29.97753902660092],[-90.08926391601562,29.97753902660092],[-90.08926391601562,29.976349445485464],[-90.09063720703125,29.976349445485464],[-90.09063720703125,29.97753902660092]]]},"properties":{"FLD_ZONE":"AE","density":3968,"score":0.27}},{"type":"Feature","geometry":{"type":"Polygon","coordinates":[[[-90.09063720703125,29.97515985012392],[-90.08926391601562,29.97515985012392],[-90.08926391601562,29.97397024051662],[-90.09063720703125,29.97397024051662],[-90.09063720703125,29.97515985012392]]]},"properties":{"FLD_ZONE":"AE","density":3688,"score":0.25}},{"type":"Feature","geometry":{"type":"Polygon","coordinates":[[[-90.09063720703125,29.97397024051662],[-90.08926391601562,29.97397024051662],[-90.08926391601562,29.97278061666388],[-90.09063720703125,29.97278061666388],[-90.09063720703125,29.97397024051662]]]},"properties":{"FLD_ZONE":"AE","density":3688,"score":0.25}},{"type":"Feature","geometry":{"type":"Polygon","coordinates":[[[-90.08926391601562,29.97872859346992],[-90.087890625,29.97872859346992],[-90.087890625,29.97753902660092],[-90.08926391601562,29.97753902660092],[-90.08926391601562,29.97872859346992]]]},"properties":{"FLD_ZONE":"AE","density":3688,"score":0.25}},{"type":"Feature","geometry":{"type":"Polygon","coordinates":[[[-90.08926391601562,29.976349445485464],[-90.087890625,29.976349445485464],[-90.087890625,29.97515985012392],[-90.08926391601562,29.97515985012392],[-90.08926391601562,29.976349445485464]]]},"properties":{"FLD_ZONE":"AE","density":3688,"score":0.25}},{"type":"Feature","geometry":{"type":"Polygon","coordinates":[[[-90.08926391601562,29.97515985012392],[-90.087890625,29.97515985012392],[-90.087890625,29.97397024051662],[-90.08926391601562,29.97397024051662],[-90.08926391601562,29.97515985012392]]]},"properties":{"FLD_ZONE":"AE","density":3688,"score":0.25}},{"type":"Feature","geometry":{"type":"Polygon","coordinates":[[[-90.08926391601562,29.97397024051662],[-90.087890625,29.97397024051662],[-90.087890625,29.97278061666388],[-90.08926391601562,29.97278061666388],[-90.08926391601562,29.97397024051662]]]},"properties":{"FLD_ZONE":"AE","density":3688,"score":0.25}},{"type":"Feature","geometry":{"type":"Polygon","coordinates":[[[-90.08926391601562,29.97278061666388],[-90.087890625,29.97278061666388],[-90.087890625,29.971590978566088],[-90.08926391601562,29.971590978566088],[-90.08926391601562,29.97278061666388]]]},"properties":{"FLD_ZONE":"AE","density":3688,"score":0.25}},{"type":"Feature","geometry":{"type":"Polygon","coordinates":[[[-90.087890625,29.97397024051662],[-90.08651733398438,29.97397024051662],[-90.08651733398438,29.97278061666388],[-90.087890625,29.97278061666388],[-90.087890625,29.97397024051662]]]},"properties":{"FLD_ZONE":"AE","density":3688,"score":0.25}},{"type":"Feature","geometry":{"type":"Polygon","coordinates":[[[-90.087890625,29.97278061666388],[-90.08651733398438,29.97278061666388],[-90.08651733398438,29.971590978566088],[-90.087890625,29.971590978566088],[-90.087890625,29.97278061666388]]]},"properties":{"FLD_ZONE":"AE","density":3688,"score":0.25}},{"type":"Feature","geometry":{"type":"Polygon","coordinates":[[[-90.087890625,29.947795225672394],[-90.08651733398438,29.947795225672394],[-90.08651733398438,29.946605288507186],[-90.087890625,29.946605288507186],[-90.087890625,29.947795225672394]]]},"properties":{"FLD_ZONE":"AE","density":3261,"score":0.22}},{"type":"Feature","geometry":{"type":"Polygon","coordinates":[[[-90.087890625,29.946605288507186],[-90.08651733398438,29.946605288507186],[-90.08651733398438,29.945415337104436],[-90.087890625,29.945415337104436],[-90.087890625,29.946605288507186]]]},"properties":{"FLD_ZONE":"AE","density":3261,"score":0.22}},{"type":"Feature","geometry":{"type":"Polygon","coordinates":[[[-90.08651733398438,29.97278061666388],[-90.08514404296875,29.97278061666388],[-90.08514404296875,29.971590978566088],[-90.08651733398438,29.971590978566088],[-90.08651733398438,29.97278061666388]]]},"properties":{"FLD_ZONE":"AE","density":3688,"score":0.25}},{"type":"Feature","geometry":{"type":"Polygon","coordinates":[[[-90.08651733398438,29.971590978566088],[-90.08514404296875,29.971590978566088],[-90.08514404296875,29.970401326223566],[-90.08651733398438,29.970401326223566],[-90.08651733398438,29.971590978566088]]]},"properties":{"FLD_ZONE":"AE","density":3688,"score":0.25}},{"type":"Feature","geometry":{"type":"Polygon","coordinates":[[[-90.08651733398438,29.946605288507186],[-90.08514404296875,29.946605288507186],[-90.08514404296875,29.945415337104436],[-90.08651733398438,29.945415337104436],[-90.08651733398438,29.946605288507186]]]},"properties":{"FLD_ZONE":"AE","density":3261,"score":0.22}},{"type":"Feature","geometry":{"type":"Polygon","coordinates":[[[-90.08514404296875,29.97278061666388],[-90.08377075195312,29.97278061666388],[-90.08377075195312,29.971590978566088],[-90.08514404296875,29.971590978566088],[-90.08514404296875,29.97278061666388]]]},"properties":{"FLD_ZONE":"AE","density":3688,"score":0.25}},{"type":"Feature","geometry":{"type":"Polygon","coordinates":[[[-90.08514404296875,29.971590978566088],[-90.08377075195312,29.971590978566088],[-90.08377075195312,29.970401326223566],[-90.08514404296875,29.970401326223566],[-90.08514404296875,29.971590978566088]]]},"properties":{"FLD_ZONE":"AE","density":3688,"score":0.25}},{"type":"Feature","geometry":{"type":"Polygon","coordinates":[[[-90.08514404296875,29.970401326223566],[-90.08377075195312,29.970401326223566],[-90.08377075195312,29.969211659636663],[-90.08514404296875,29.969211659636663],[-90.08514404296875,29.970401326223566]]]},"properties":{"FLD_ZONE":"AE","density":3688,"score":0.25}},{"type":"Feature","geometry":{"type":"Polygon","coordinates":[[[-90.08377075195312,29.97515985012392],[-90.0823974609375,29.97515985012392],[-90.0823974609375,29.97397024051662],[-90.08377075195312,29.97397024051662],[-90.08377075195312,29.97515985012392]]]},"properties":{"FLD_ZONE":"AE","density":3688,"score":0.25}},{"type":"Feature","geometry":{"type":"Polygon","coordinates":[[[-90.08377075195312,29.971590978566088],[-90.0823974609375,29.971590978566088],[-90.0823974609375,29.970401326223566],[-90.08377075195312,29.970401326223566],[-90.08377075195312,29.971590978566088]]]},"properties":{"FLD_ZONE":"AE","density":3688,"score":0.25}},{"type":"Feature","geometry":{"type":"Polygon","coordinates":[[[-90.08377075195312,29.970401326223566],[-90.0823974609375,29.970401326223566],[-90.0823974609375,29.969211659636663],[-90.08377075195312,29.969211659636663],[-90.08377075195312,29.970401326223566]]]},"properties":{"FLD_ZONE":"AE","density":3090,"score":0.21}},{"type":"Feature","geometry":{"type":"Polygon","coordinates":[[[-90.08377075195312,29.969211659636663],[-90.0823974609375,29.969211659636663],[-90.0823974609375,29.96802197880571],[-90.08377075195312,29.96802197880571],[-90.08377075195312,29.969211659636663]]]},"properties":{"FLD_ZONE":"AE","density":3090,"score":0.21}},{"type":"Feature","geometry":{"type":"Polygon","coordinates":[[[-90.0823974609375,29.97278061666388],[-90.08102416992188,29.97278061666388],[-90.08102416992188,29.971590978566088],[-90.0823974609375,29.971590978566088],[-90.0823974609375,29.97278061666388]]]},"properties":{"FLD_ZONE":"AE","density":3688,"score":0.25}},{"type":"Feature","geometry":{"type":"Polygon","coordinates":[[[-90.0823974609375,29.971590978566088],[-90.08102416992188,29.971590978566088],[-90.08102416992188,29.970401326223566],[-90.0823974609375,29.970401326223566],[-90.0823974609375,29.971590978566088]]]},"properties":{"FLD_ZONE":"AE","density":3090,"score":0.21}},{"type":"Feature","geometry":{"type":"Polygon","coordinates":[[[-90.0823974609375,29.970401326223566],[-90.08102416992188,29.970401326223566],[-90.08102416992188,29.969211659636663],[-90.0823974609375,29.969211659636663],[-90.0823974609375,29.970401326223566]]]},"properties":{"FLD_ZONE":"AE","density":3090,"score":0.21}},{"type":"Feature","geometry":{"type":"Polygon","coordinates":[[[-90.0823974609375,29.969211659636663],[-90.08102416992188,29.969211659636663],[-90.08102416992188,29.96802197880571],[-90.0823974609375,29.96802197880571],[-90.0823974609375,29.969211659636663]]]},"properties":{"FLD_ZONE":"AE","density":3090,"score":0.21}},{"type":"Feature","geometry":{"type":"Polygon","coordinates":[[[-90.08102416992188,29.97278061666388],[-90.07965087890625,29.97278061666388],[-90.07965087890625,29.971590978566088],[-90.08102416992188,29.971590978566088],[-90.08102416992188,29.97278061666388]]]},"properties":{"FLD_ZONE":"AE","density":3090,"score":0.21}},{"type":"Feature","geometry":{"type":"Polygon","coordinates":[[[-90.08102416992188,29.971590978566088],[-90.07965087890625,29.971590978566088],[-90.07965087890625,29.970401326223566],[-90.08102416992188,29.970401326223566],[-90.08102416992188,29.971590978566088]]]},"properties":{"FLD_ZONE":"AE","density":3090,"score":0.21}},{"type":"Feature","geometry":{"type":"Polygon","coordinates":[[[-90.08102416992188,29.970401326223566],[-90.07965087890625,29.970401326223566],[-90.07965087890625,29.969211659636663],[-90.08102416992188,29.969211659636663],[-90.08102416992188,29.970401326223566]]]},"properties":{"FLD_ZONE":"AE","density":3090,"score":0.21}},{"type":"Feature","geometry":{"type":"Polygon","coordinates":[[[-90.08102416992188,29.969211659636663],[-90.07965087890625,29.969211659636663],[-90.07965087890625,29.96802197880571],[-90.08102416992188,29.96802197880571],[-90.08102416992188,29.969211659636663]]]},"properties":{"FLD_ZONE":"AE","density":4786,"score":0.33}},{"type":"Feature","geometry":{"type":"Polygon","coordinates":[[[-90.08102416992188,29.96802197880571],[-90.07965087890625,29.96802197880571],[-90.07965087890625,29.966832283731055],[-90.08102416992188,29.966832283731055],[-90.08102416992188,29.96802197880571]]]},"properties":{"FLD_ZONE":"AE","density":4786,"score":0.33}},{"type":"Feature","geometry":{"type":"Polygon","coordinates":[[[-90.07965087890625,29.971590978566088],[-90.07827758789062,29.971590978566088],[-90.07827758789062,29.970401326223566],[-90.07965087890625,29.970401326223566],[-90.07965087890625,29.971590978566088]]]},"properties":{"FLD_ZONE":"AE","density":3090,"score":0.21}},{"type":"Feature","geometry":{"type":"Polygon","coordinates":[[[-90.07965087890625,29.970401326223566],[-90.07827758789062,29.970401326223566],[-90.07827758789062,29.969211659636663],[-90.07965087890625,29.969211659636663],[-90.07965087890625,29.970401326223566]]]},"properties":{"FLD_ZONE":"AE","density":3090,"score":0.21}},{"type":"Feature","geometry":{"type":"Polygon","coordinates":[[[-90.07965087890625,29.969211659636663],[-90.07827758789062,29.969211659636663],[-90.07827758789062,29.96802197880571],[-90.07965087890625,29.96802197880571],[-90.07965087890625,29.969211659636663]]]},"properties":{"FLD_ZONE":"AE","density":3090,"score":0.21}},{"type":"Feature","geometry":{"type":"Polygon","coordinates":[[[-90.07965087890625,29.96802197880571],[-90.07827758789062,29.96802197880571],[-90.07827758789062,29.966832283731055],[-90.07965087890625,29.966832283731055],[-90.07965087890625,29.96802197880571]]]},"properties":{"FLD_ZONE":"AE","density":4786,"score":0.33}},{"type":"Feature","geometry":{"type":"Polygon","coordinates":[[[-90.07965087890625,29.966832283731055],[-90.07827758789062,29.966832283731055],[-90.07827758789062,29.965642574413035],[-90.07965087890625,29.965642574413035],[-90.07965087890625,29.966832283731055]]]},"properties":{"FLD_ZONE":"AE","density":4786,"score":0.33}},{"type":"Feature","geometry":{"type":"Polygon","coordinates":[[[-90.07827758789062,29.971590978566088],[-90.076904296875,29.971590978566088],[-90.076904296875,29.970401326223566],[-90.07827758789062,29.970401326223566],[-90.07827758789062,29.971590978566088]]]},"properties":{"FLD_ZONE":"AE","density":4380,"score":0.3}},{"type":"Feature","geometry":{"type":"Polygon","coordinates":[[[-90.07827758789062,29.96802197880571],[-90.076904296875,29.96802197880571],[-90.076904296875,29.966832283731055],[-90.07827758789062,29.966832283731055],[-90.07827758789062,29.96802197880571]]]},"properties":{"FLD_ZONE":"AE","density":3090,"score":0.21}},{"type":"Feature","geometry":{"type":"Polygon","coordinates":[[[-90.07827758789062,29.966832283731055],[-90.076904296875,29.966832283731055],[-90.076904296875,29.965642574413035],[-90.07827758789062,29.965642574413035],[-90.07827758789062,29.966832283731055]]]},"properties":{"FLD_ZONE":"AE","density":4786,"score":0.33}},{"type":"Feature","geometry":{"type":"Polygon","coordinates":[[[-90.076904296875,29.96802197880571],[-90.07553100585938,29.96802197880571],[-90.07553100585938,29.966832283731055],[-90.076904296875,29.966832283731055],[-90.076904296875,29.96802197880571]]]},"properties":{"FLD_ZONE":"AE","density":3090,"score":0.21}},{"type":"Feature","geometry":{"type":"Polygon","coordinates":[[[-90.076904296875,29.966832283731055],[-90.07553100585938,29.966832283731055],[-90.07553100585938,29.965642574413035],[-90.076904296875,29.965642574413035],[-90.076904296875,29.966832283731055]]]},"properties":{"FLD_ZONE":"AE","density":4786,"score":0.33}},{"type":"Feature","geometry":{"type":"Polygon","coordinates":[[[-90.076904296875,29.965642574413035],[-90.07553100585938,29.965642574413035],[-90.07553100585938,29.964452850852],[-90.076904296875,29.964452850852],[-90.076904296875,29.965642574413035]]]},"properties":{"FLD_ZONE":"AE","density":4786,"score":0.33}},{"type":"Feature","geometry":{"type":"Polygon","coordinates":[[[-90.07553100585938,29.96802197880571],[-90.07415771484375,29.96802197880571],[-90.07415771484375,29.966832283731055],[-90.07553100585938,29.966832283731055],[-90.07553100585938,29.96802197880571]]]},"properties":{"FLD_ZONE":"AE","density":3090,"score":0.21}},{"type":"Feature","geometry":{"type":"Polygon","coordinates":[[[-90.07553100585938,29.966832283731055],[-90.07415771484375,29.966832283731055],[-90.07415771484375,29.965642574413035],[-90.07553100585938,29.965642574413035],[-90.07553100585938,29.966832283731055]]]},"properties":{"FLD_ZONE":"AE","density":3090,"score":0.21}},{"type":"Feature","geometry":{"type":"Polygon","coordinates":[[[-90.07553100585938,29.965642574413035],[-90.07415771484375,29.965642574413035],[-90.07415771484375,29.964452850852],[-90.07553100585938,29.964452850852],[-90.07553100585938,29.965642574413035]]]},"properties":{"FLD_ZONE":"AE","density":4786,"score":0.33}},{"type":"Feature","geometry":{"type":"Polygon","coordinates":[[[-90.07278442382812,29.957314210401556],[-90.0714111328125,29.957314210401556],[-90.0714111328125,29.95612438714899],[-90.07278442382812,29.95612438714899],[-90.07278442382812,29.957314210401556]]]},"properties":{"FLD_ZONE":"AE","density":3718,"score":0.25}},{"type":"Feature","geometry":{"type":"Polygon","coordinates":[[[-90.0714111328125,30.023921574501376],[-90.07003784179688,30.023921574501376],[-90.07003784179688,30.022732549250406],[-90.0714111328125,30.022732549250406],[-90.0714111328125,30.023921574501376]]]},"properties":{"FLD_ZONE":"AE","density":3351,"score":0.23}},{"type":"Feature","geometry":{"type":"Polygon","coordinates":[[[-90.0714111328125,30.022732549250406],[-90.07003784179688,30.022732549250406],[-90.07003784179688,30.02154350974002],[-90.0714111328125,30.02154350974002],[-90.0714111328125,30.022732549250406]]]},"properties":{"FLD_ZONE":"AE","density":3351,"score":0.23}},{"type":"Feature","geometry":{"type":"Polygon","coordinates":[[[-90.0714111328125,30.02154350974002],[-90.07003784179688,30.02154350974002],[-90.07003784179688,30.02035445597055],[-90.0714111328125,30.02035445597055],[-90.0714111328125,30.02154350974002]]]},"properties":{"FLD_ZONE":"AE","density":3351,"score":0.23}},{"type":"Feature","geometry":{"type":"Polygon","coordinates":[[[-90.05218505859375,29.98467621410635],[-90.05081176757812,29.98467621410635],[-90.05081176757812,29.983486718474687],[-90.05218505859375,29.983486718474687],[-90.05218505859375,29.98467621410635]]]},"properties":{"FLD_ZONE":"AE","density":3710,"score":0.25}},{"type":"Feature","geometry":{"type":"Polygon","coordinates":[[[-90.05218505859375,29.983486718474687],[-90.05081176757812,29.983486718474687],[-90.05081176757812,29.98229720859487],[-90.05218505859375,29.98229720859487],[-90.05218505859375,29.983486718474687]]]},"properties":{"FLD_ZONE":"AE","density":3710,"score":0.25}},{"type":"Feature","geometry":{"type":"Polygon","coordinates":[[[-90.05218505859375,29.98229720859487],[-90.05081176757812,29.98229720859487],[-90.05081176757812,29.981107684467236],[-90.05218505859375,29.981107684467236],[-90.05218505859375,29.98229720859487]]]},"properties":{"FLD_ZONE":"AE","density":3710,"score":0.25}},{"type":"Feature","geometry":{"type":"Polygon","coordinates":[[[-90.05081176757812,29.98467621410635],[-90.0494384765625,29.98467621410635],[-90.0494384765625,29.983486718474687],[-90.05081176757812,29.983486718474687],[-90.05081176757812,29.98467621410635]]]},"properties":{"FLD_ZONE":"AE","density":3710,"score":0.25}},{"type":"Feature","geometry":{"type":"Polygon","coordinates":[[[-90.05081176757812,29.983486718474687],[-90.0494384765625,29.983486718474687],[-90.0494384765625,29.98229720859487],[-90.05081176757812,29.98229720859487],[-90.05081176757812,29.983486718474687]]]},"properties":{"FLD_ZONE":"AE","density":3710,"score":0.25}},{"type":"Feature","geometry":{"type":"Polygon","coordinates":[[[-90.05081176757812,29.98229720859487],[-90.0494384765625,29.98229720859487],[-90.0494384765625,29.981107684467236],[-90.05081176757812,29.981107684467236],[-90.05081176757812,29.98229720859487]]]},"properties":{"FLD_ZONE":"AE","density":3710,"score":0.25}},{"type":"Feature","geometry":{"type":"Polygon","coordinates":[[[-90.0494384765625,29.98467621410635],[-90.04806518554688,29.98467621410635],[-90.04806518554688,29.983486718474687],[-90.0494384765625,29.983486718474687],[-90.0494384765625,29.98467621410635]]]},"properties":{"FLD_ZONE":"AE","density":3710,"score":0.25}},{"type":"Feature","geometry":{"type":"Polygon","coordinates":[[[-90.0494384765625,29.983486718474687],[-90.04806518554688,29.983486718474687],[-90.04806518554688,29.98229720859487],[-90.0494384765625,29.98229720859487],[-90.0494384765625,29.983486718474687]]]},"properties":{"FLD_ZONE":"AE","density":3710,"score":0.25}},{"type":"Feature","geometry":{"type":"Polygon","coordinates":[[[-90.0494384765625,29.98229720859487],[-90.04806518554688,29.98229720859487],[-90.04806518554688,29.981107684467236],[-90.0494384765625,29.981107684467236],[-90.0494384765625,29.98229720859487]]]},"properties":{"FLD_ZONE":"AE","density":3710,"score":0.25}},{"type":"Feature","geometry":{"type":"Polygon","coordinates":[[[-90.0494384765625,29.981107684467236],[-90.04806518554688,29.981107684467236],[-90.04806518554688,29.979918146092142],[-90.0494384765625,29.979918146092142],[-90.0494384765625,29.981107684467236]]]},"properties":{"FLD_ZONE":"AE","density":3710,"score":0.25}},{"type":"Feature","geometry":{"type":"Polygon","coordinates":[[[-90.04806518554688,29.98467621410635],[-90.04669189453125,29.98467621410635],[-90.04669189453125,29.983486718474687],[-90.04806518554688,29.983486718474687],[-90.04806518554688,29.98467621410635]]]},"properties":{"FLD_ZONE":"AE","density":3710,"score":0.25}},{"type":"Feature","geometry":{"type":"Polygon","coordinates":[[[-90.04806518554688,29.983486718474687],[-90.04669189453125,29.983486718474687],[-90.04669189453125,29.98229720859487],[-90.04806518554688,29.98229720859487],[-90.04806518554688,29.983486718474687]]]},"properties":{"FLD_ZONE":"AE","density":3710,"score":0.25}},{"type":"Feature","geometry":{"type":"Polygon","coordinates":[[[-90.04806518554688,29.98229720859487],[-90.04669189453125,29.98229720859487],[-90.04669189453125,29.981107684467236],[-90.04806518554688,29.981107684467236],[-90.04806518554688,29.98229720859487]]]},"properties":{"FLD_ZONE":"AE","density":3710,"score":0.25}},{"type":"Feature","geometry":{"type":"Polygon","coordinates":[[[-90.04806518554688,29.981107684467236],[-90.04669189453125,29.981107684467236],[-90.04669189453125,29.979918146092142],[-90.04806518554688,29.979918146092142],[-90.04806518554688,29.981107684467236]]]},"properties":{"FLD_ZONE":"AE","density":3710,"score":0.25}},{"type":"Feature","geometry":{"type":"Polygon","coordinates":[[[-90.04669189453125,29.98467621410635],[-90.04531860351562,29.98467621410635],[-90.04531860351562,29.983486718474687],[-90.04669189453125,29.983486718474687],[-90.04669189453125,29.98467621410635]]]},"properties":{"FLD_ZONE":"AE","density":3710,"score":0.25}},{"type":"Feature","geometry":{"type":"Polygon","coordinates":[[[-90.02197265625,29.925183985247408],[-90.02059936523438,29.925183985247408],[-90.02059936523438,29.923993777627704],[-90.02197265625,29.923993777627704],[-90.02197265625,29.925183985247408]]]},"properties":{"FLD_ZONE":"AE","density":3264,"score":0.22}},{"type":"Feature","geometry":{"type":"Polygon","coordinates":[[[-90.02197265625,29.923993777627704],[-90.02059936523438,29.923993777627704],[-90.02059936523438,29.922803555776987],[-90.02197265625,29.922803555776987],[-90.02197265625,29.923993777627704]]]},"properties":{"FLD_ZONE":"AE","density":3264,"score":0.22}},{"type":"Feature","geometry":{"type":"Polygon","coordinates":[[[-90.02197265625,29.922803555776987],[-90.02059936523438,29.922803555776987],[-90.02059936523438,29.92161331969559],[-90.02197265625,29.92161331969559],[-90.02197265625,29.922803555776987]]]},"properties":{"FLD_ZONE":"AE","density":3264,"score":0.22}},{"type":"Feature","geometry":{"type":"Polygon","coordinates":[[[-90.02197265625,29.92161331969559],[-90.02059936523438,29.92161331969559],[-90.02059936523438,29.920423069383872],[-90.02197265625,29.920423069383872],[-90.02197265625,29.92161331969559]]]},"properties":{"FLD_ZONE":"AE","density":3264,"score":0.22}},{"type":"Feature","geometry":{"type":"Polygon","coordinates":[[[-90.02059936523438,29.923993777627704],[-90.01922607421875,29.923993777627704],[-90.01922607421875,29.922803555776987],[-90.02059936523438,29.922803555776987],[-90.02059936523438,29.923993777627704]]]},"properties":{"FLD_ZONE":"AE","density":3264,"score":0.22}},{"type":"Feature","geometry":{"type":"Polygon","coordinates":[[[-90.02059936523438,29.922803555776987],[-90.01922607421875,29.922803555776987],[-90.01922607421875,29.92161331969559],[-90.02059936523438,29.92161331969559],[-90.02059936523438,29.922803555776987]]]},"properties":{"FLD_ZONE":"AE","density":3264,"score":0.22}},{"type":"Feature","geometry":{"type":"Polygon","coordinates":[[[-90.02059936523438,29.92161331969559],[-90.01922607421875,29.92161331969559],[-90.01922607421875,29.920423069383872],[-90.02059936523438,29.920423069383872],[-90.02059936523438,29.92161331969559]]]},"properties":{"FLD_ZONE":"AE","density":3264,"score":0.22}},{"type":"Feature","geometry":{"type":"Polygon","coordinates":[[[-90.01922607421875,29.922803555776987],[-90.01785278320312,29.922803555776987],[-90.01785278320312,29.92161331969559],[-90.01922607421875,29.92161331969559],[-90.01922607421875,29.922803555776987]]]},"properties":{"FLD_ZONE":"AE","density":3264,"score":0.22}},{"type":"Feature","geometry":{"type":"Polygon","coordinates":[[[-90.01922607421875,29.92161331969559],[-90.01785278320312,29.92161331969559],[-90.01785278320312,29.920423069383872],[-90.01922607421875,29.920423069383872],[-90.01922607421875,29.92161331969559]]]},"properties":{"FLD_ZONE":"AE","density":3264,"score":0.22}},{"type":"Feature","geometry":{"type":"Polygon","coordinates":[[[-90.01785278320312,29.922803555776987],[-90.0164794921875,29.922803555776987],[-90.0164794921875,29.92161331969559],[-90.01785278320312,29.92161331969559],[-90.01785278320312,29.922803555776987]]]},"properties":{"FLD_ZONE":"AE","density":3264,"score":0.22}},{"type":"Feature","geometry":{"type":"Polygon","coordinates":[[[-89.99313354492188,30.046510344526016],[-89.99176025390625,30.046510344526016],[-89.99176025390625,30.04532159026885],[-89.99313354492188,30.04532159026885],[-89.99313354492188,30.046510344526016]]]},"properties":{"FLD_ZONE":"VE","density":3729,"score":0.42}},{"type":"Feature","geometry":{"type":"Polygon","coordinates":[[[-89.99038696289062,30.047699084516942],[-89.989013671875,30.047699084516942],[-89.989013671875,30.046510344526016],[-89.99038696289062,30.046510344526016],[-89.99038696289062,30.047699084516942]]]},"properties":{"FLD_ZONE":"VE","density":3729,"score":0.42}}]}